[
    {
        "Altitude(m)": 704021.6692546447,
        "Argument of Periapsis(deg)": 0.006834072711976239,
        "Eccentricity": 0.0,
        "Inclination(deg)": 45.0,
        "Latitude(deg)": 28.435234792470467,
        "Longitude(deg)": -23.039366076100826,
        "Mean Anomaly(deg)": -222.17097001151149,
        "RAAN(deg)": 289.9935488351251,
        "Satellite Name": "Constellation 1 1284",
        "Satellite Number": 1284,
        "Semi-Major Axis(m)": 7083131.272910544,
        "Time(s)": 114
    },
    {
        "Altitude(m)": 704016.1664656802,
        "Argument of Periapsis(deg)": 0.006894020718221645,
        "Eccentricity": 0.0,
        "Inclination(deg)": 45.0,
        "Latitude(deg)": 28.398877775025234,
        "Longitude(deg)": -22.98813422071851,
        "Mean Anomaly(deg)": -222.11026887126158,
        "RAAN(deg)": 289.99349224595954,
        "Satellite Name": "Constellation 1 1284",
        "Satellite Number": 1284,
        "Semi-Major Axis(m)": 7083131.272910544,
        "Time(s)": 115
    },
    {
        "Altitude(m)": 704010.669738463,
        "Argument of Periapsis(deg)": 0.006953968724467052,
        "Eccentricity": 0.0,
        "Inclination(deg)": 45.0,
        "Latitude(deg)": 28.36249810944396,
        "Longitude(deg)": -22.936940121074468,
        "Mean Anomaly(deg)": -222.04956773101173,
        "RAAN(deg)": 289.99343565679396,
        "Satellite Name": "Constellation 1 1284",
        "Satellite Number": 1284,
        "Semi-Major Axis(m)": 7083131.272910544,
        "Time(s)": 116
    },
    {
        "Altitude(m)": 704005.1791119132,
        "Argument of Periapsis(deg)": 0.007013916730712457,
        "Eccentricity": 0.0,
        "Inclination(deg)": 45.0,
        "Latitude(deg)": 28.326095844883586,
        "Longitude(deg)": -22.885783717544147,
        "Mean Anomaly(deg)": -221.98886659076177,
        "RAAN(deg)": 289.9933790676284,
        "Satellite Name": "Constellation 1 1284",
        "Satellite Number": 1284,
        "Semi-Major Axis(m)": 7083131.272910544,
        "Time(s)": 117
    },
    {
        "Altitude(m)": 703999.6946249187,
        "Argument of Periapsis(deg)": 0.007073864736957864,
        "Eccentricity": 0.0,
        "Inclination(deg)": 45.0,
        "Latitude(deg)": 28.28967103043058,
        "Longitude(deg)": -22.83466495047237,
        "Mean Anomaly(deg)": -221.9281654505119,
        "RAAN(deg)": 289.9933224784628,
        "Satellite Name": "Constellation 1 1284",
        "Satellite Number": 1284,
        "Semi-Major Axis(m)": 7083131.272910544,
        "Time(s)": 118
    },
    {
        "Altitude(m)": 703994.2163163688,
        "Argument of Periapsis(deg)": 0.0071338127432032696,
        "Eccentricity": 0.0,
        "Inclination(deg)": 45.0,
        "Latitude(deg)": 28.253223715100425,
        "Longitude(deg)": -22.783583928270147,
        "Mean Anomaly(deg)": -221.86746431026197,
        "RAAN(deg)": 289.9932658892973,
        "Satellite Name": "Constellation 1 1284",
        "Satellite Number": 1284,
        "Semi-Major Axis(m)": 7083131.272910544,
        "Time(s)": 119
    },
    {
        "Altitude(m)": 703988.7442251393,
        "Argument of Periapsis(deg)": 0.007193760749448674,
        "Eccentricity": 0.0,
        "Inclination(deg)": 45.0,
        "Latitude(deg)": 28.216753947839017,
        "Longitude(deg)": -22.732540255028216,
        "Mean Anomaly(deg)": -221.80676317001212,
        "RAAN(deg)": 289.9932093001317,
        "Satellite Name": "Constellation 1 1284",
        "Satellite Number": 1284,
        "Semi-Major Axis(m)": 7083131.272910544,
        "Time(s)": 120
    },
    {
        "Altitude(m)": 703983.2783900755,
        "Argument of Periapsis(deg)": 0.007253708755694079,
        "Eccentricity": 0.0,
        "Inclination(deg)": 45.0,
        "Latitude(deg)": 28.180261777520982,
        "Longitude(deg)": -22.681534039098583,
        "Mean Anomaly(deg)": -221.74606202976224,
        "RAAN(deg)": 289.9931527109661,
        "Satellite Name": "Constellation 1 1284",
        "Satellite Number": 1284,
        "Semi-Major Axis(m)": 7083131.272910544,
        "Time(s)": 121
    },
    {
        "Altitude(m)": 703977.8188500289,
        "Argument of Periapsis(deg)": 0.0073136567619394854,
        "Eccentricity": 0.0,
        "Inclination(deg)": 45.0,
        "Latitude(deg)": 28.143747252950973,
        "Longitude(deg)": -22.630565220707734,
        "Mean Anomaly(deg)": -221.6853608895123,
        "RAAN(deg)": 289.9930961218006,
        "Satellite Name": "Constellation 1 1284",
        "Satellite Number": 1284,
        "Semi-Major Axis(m)": 7083131.272910544,
        "Time(s)": 122
    },
    {
        "Altitude(m)": 703972.3656438224,
        "Argument of Periapsis(deg)": 0.0073736047681848904,
        "Eccentricity": 0.0,
        "Inclination(deg)": 45.0,
        "Latitude(deg)": 28.107210422863314,
        "Longitude(deg)": -22.579633740053968,
        "Mean Anomaly(deg)": -221.62465974926243,
        "RAAN(deg)": 289.99303953263495,
        "Satellite Name": "Constellation 1 1284",
        "Satellite Number": 1284,
        "Semi-Major Axis(m)": 7083131.272910544,
        "Time(s)": 123
    },
    {
        "Altitude(m)": 703966.9188102741,
        "Argument of Periapsis(deg)": 0.007433552774430298,
        "Eccentricity": 0.0,
        "Inclination(deg)": 45.0,
        "Latitude(deg)": 28.0706513359221,
        "Longitude(deg)": -22.52873953730767,
        "Mean Anomaly(deg)": -221.5639586090125,
        "RAAN(deg)": 289.99298294346943,
        "Satellite Name": "Constellation 1 1284",
        "Satellite Number": 1284,
        "Semi-Major Axis(m)": 7083131.272910544,
        "Time(s)": 124
    },
    {
        "Altitude(m)": 703961.478388181,
        "Argument of Periapsis(deg)": 0.007493500780675703,
        "Eccentricity": 0.0,
        "Inclination(deg)": 45.0,
        "Latitude(deg)": 28.034070040721332,
        "Longitude(deg)": -22.477882552612222,
        "Mean Anomaly(deg)": -221.50325746876263,
        "RAAN(deg)": 289.99292635430385,
        "Satellite Name": "Constellation 1 1284",
        "Satellite Number": 1284,
        "Semi-Major Axis(m)": 7083131.272910544,
        "Time(s)": 125
    },
    {
        "Altitude(m)": 703956.0444163216,
        "Argument of Periapsis(deg)": 0.007553448786921108,
        "Eccentricity": 0.0,
        "Inclination(deg)": 45.0,
        "Latitude(deg)": 27.997466585784707,
        "Longitude(deg)": -22.42706289418128,
        "Mean Anomaly(deg)": -221.44255632851272,
        "RAAN(deg)": 289.99286976513827,
        "Satellite Name": "Constellation 1 1284",
        "Satellite Number": 1284,
        "Semi-Major Axis(m)": 7083131.272910544,
        "Time(s)": 126
    },
    {
        "Altitude(m)": 703950.6169334684,
        "Argument of Periapsis(deg)": 0.007613396793166514,
        "Eccentricity": 0.0,
        "Inclination(deg)": 45.0,
        "Latitude(deg)": 27.960841019566555,
        "Longitude(deg)": -22.37628016591102,
        "Mean Anomaly(deg)": -221.3818551882628,
        "RAAN(deg)": 289.9928131759727,
        "Satellite Name": "Constellation 1 1284",
        "Satellite Number": 1284,
        "Semi-Major Axis(m)": 7083131.272910544,
        "Time(s)": 127
    },
    {
        "Altitude(m)": 703945.195978369,
        "Argument of Periapsis(deg)": 0.007673344799411918,
        "Eccentricity": 0.0,
        "Inclination(deg)": 45.0,
        "Latitude(deg)": 27.924193390450753,
        "Longitude(deg)": -22.32553447596333,
        "Mean Anomaly(deg)": -221.32115404801291,
        "RAAN(deg)": 289.9927565868071,
        "Satellite Name": "Constellation 1 1284",
        "Satellite Number": 1284,
        "Semi-Major Axis(m)": 7083131.272910544,
        "Time(s)": 128
    },
    {
        "Altitude(m)": 703939.7815897678,
        "Argument of Periapsis(deg)": 0.007733292805657325,
        "Eccentricity": 0.0,
        "Inclination(deg)": 45.0,
        "Latitude(deg)": 27.88752374675132,
        "Longitude(deg)": -22.274825764377525,
        "Mean Anomaly(deg)": -221.260452907763,
        "RAAN(deg)": 289.9926999976416,
        "Satellite Name": "Constellation 1 1284",
        "Satellite Number": 1284,
        "Semi-Major Axis(m)": 7083131.272910544,
        "Time(s)": 129
    },
    {
        "Altitude(m)": 703934.3738063783,
        "Argument of Periapsis(deg)": 0.00779324081190273,
        "Eccentricity": 0.0,
        "Inclination(deg)": 45.0,
        "Latitude(deg)": 27.85083213671264,
        "Longitude(deg)": -22.224153971168512,
        "Mean Anomaly(deg)": -221.1997517675131,
        "RAAN(deg)": 289.992643408476,
        "Satellite Name": "Constellation 1 1284",
        "Satellite Number": 1284,
        "Semi-Major Axis(m)": 7083131.272910544,
        "Time(s)": 130
    },
    {
        "Altitude(m)": 703928.9726669082,
        "Argument of Periapsis(deg)": 0.007853188818148135,
        "Eccentricity": 0.0,
        "Inclination(deg)": 45.0,
        "Latitude(deg)": 27.814118608509304,
        "Longitude(deg)": -22.17351903632688,
        "Mean Anomaly(deg)": -221.13905062726323,
        "RAAN(deg)": 289.9925868193104,
        "Satellite Name": "Constellation 1 1284",
        "Satellite Number": 1284,
        "Semi-Major Axis(m)": 7083131.272910544,
        "Time(s)": 131
    },
    {
        "Altitude(m)": 703923.5782100452,
        "Argument of Periapsis(deg)": 0.007913136824393542,
        "Eccentricity": 0.0,
        "Inclination(deg)": 45.0,
        "Latitude(deg)": 27.777383210246263,
        "Longitude(deg)": -22.122920899819352,
        "Mean Anomaly(deg)": -221.0783494870133,
        "RAAN(deg)": 289.99253023014484,
        "Satellite Name": "Constellation 1 1284",
        "Satellite Number": 1284,
        "Semi-Major Axis(m)": 7083131.272910544,
        "Time(s)": 132
    }
]